{
"type": "FeatureCollection",
"name": "loteamentos",
"crs": { "type": "name", "properties": { "name": "urn:ogc:def:crs:EPSG::4674" } },
"features": [
{ "type": "Feature", "properties": { "id": 1, "Nome": "Loteamento Áurea Ribeiro", "num_lot": 16 }, "geometry": { "type": "MultiPolygon", "coordinates": [ [ [ [ -34.966453799999954, -7.13608389999996 ], [ -34.964034199999958, -7.134959899999956 ], [ -34.965111599999943, -7.140295399999957 ], [ -34.962633899999958, -7.140869299999963 ], [ -34.962658499999975, -7.144573199999968 ], [ -34.96847159999993, -7.143296799999973 ], [ -34.966453799999954, -7.13608389999996 ] ] ] ] } },
{ "type": "Feature", "properties": { "id": 2, "Nome": "Loteamento Portal do Paraíso", "num_lot": 23 }, "geometry": { "type": "MultiPolygon", "coordinates": [ [ [ [ -34.962658499999975, -7.144573199999968 ], [ -34.962659699999961, -7.14726 ], [ -34.962686399999939, -7.148429299999975 ], [ -34.957719099999963, -7.14844759999994 ], [ -34.957740199999932, -7.149525799999935 ], [ -34.962473399999965, -7.149506699999961 ], [ -34.962750399999948, -7.149246299999959 ], [ -34.963401099999942, -7.148607899999945 ], [ -34.963466199999971, -7.148510299999941 ], [ -34.965206799999976, -7.146802299999933 ], [ -34.966666, -7.145325899999932 ], [ -34.968503299999952, -7.143433699999946 ], [ -34.96847159999993, -7.143296799999973 ], [ -34.962658499999975, -7.144573199999968 ] ] ] ] } },
{ "type": "Feature", "properties": { "id": 3, "Nome": "Loteamento Jardim Europa I", "num_lot": 24 }, "geometry": { "type": "MultiPolygon", "coordinates": [ [ [ [ -34.957719099999963, -7.14844759999994 ], [ -34.954533899999944, -7.148437 ], [ -34.954464, -7.14851079999994 ], [ -34.954225899999983, -7.149915199999953 ], [ -34.954217699999958, -7.150067799999931 ], [ -34.953954199999941, -7.151541599999973 ], [ -34.957039699999939, -7.15298869999998 ], [ -34.95727519999997, -7.15250709999998 ], [ -34.959651299999962, -7.153573899999969 ], [ -34.959641899999951, -7.152116399999954 ], [ -34.961001099999976, -7.150678 ], [ -34.961216499999978, -7.150857899999949 ], [ -34.962452199999973, -7.149578 ], [ -34.962473399999965, -7.149506699999961 ], [ -34.957740199999932, -7.149525799999935 ], [ -34.957719099999963, -7.14844759999994 ] ] ] ] } },
{ "type": "Feature", "properties": { "id": 4, "Nome": "Loteamento Planalto Tibiri II", "num_lot": 25 }, "geometry": { "type": "MultiPolygon", "coordinates": [ [ [ [ -34.953951299999972, -7.151556299999982 ], [ -34.953704899999934, -7.152821699999947 ], [ -34.953557599999954, -7.153439599999956 ], [ -34.953484, -7.153902 ], [ -34.953263099999958, -7.155034699999931 ], [ -34.953365199999951, -7.155709299999955 ], [ -34.953124, -7.156277 ], [ -34.955498399999954, -7.157393799999966 ], [ -34.956871499999977, -7.15805649999993 ], [ -34.957135799999946, -7.158163299999956 ], [ -34.956823799999938, -7.160654199999954 ], [ -34.956776699999978, -7.161117899999965 ], [ -34.956456499999945, -7.163392699999974 ], [ -34.957639, -7.163922 ], [ -34.957819, -7.163017 ], [ -34.957994, -7.161496 ], [ -34.958109, -7.161022599999967 ], [ -34.95814809999996, -7.160486899999967 ], [ -34.958377199999973, -7.158760799999925 ], [ -34.959951899999965, -7.159481699999958 ], [ -34.959996499999932, -7.159238799999969 ], [ -34.960334, -7.158414499999935 ], [ -34.960591199999953, -7.158074399999975 ], [ -34.960382599999946, -7.156980499999975 ], [ -34.958558099999948, -7.157001499999978 ], [ -34.958312799999931, -7.156893899999943 ], [ -34.95835969999996, -7.156825499999968 ], [ -34.958405699999958, -7.15666959999993 ], [ -34.958452699999953, -7.156207799999947 ], [ -34.958505, -7.15564349999994 ], [ -34.958533399999965, -7.155250599999931 ], [ -34.95857419999993, -7.155131399999959 ], [ -34.959671799999967, -7.15512259999997 ], [ -34.959651299999962, -7.153573899999969 ], [ -34.95727519999997, -7.15250709999998 ], [ -34.957039699999939, -7.15298869999998 ], [ -34.953951299999972, -7.151556299999982 ] ] ] ] } },
{ "type": "Feature", "properties": { "id": 5, "Nome": "Loteamento Heitel Santiago", "num_lot": 38 }, "geometry": { "type": "MultiPolygon", "coordinates": [ [ [ [ -34.956456499999945, -7.163392699999974 ], [ -34.955176399999971, -7.16319029999994 ], [ -34.955104, -7.163642 ], [ -34.954994, -7.164587 ], [ -34.954889, -7.165047 ], [ -34.954682699999978, -7.166923399999973 ], [ -34.954657, -7.167865199999937 ], [ -34.954657, -7.167865199999937 ], [ -34.954663892590006, -7.167879707882236 ], [ -34.954657, -7.167865199999937 ], [ -34.954731099999947, -7.16786639999998 ], [ -34.95481129999996, -7.167911699999934 ], [ -34.955004799999983, -7.167917799999941 ], [ -34.955208, -7.167874199999972 ], [ -34.955235899999934, -7.167851299999938 ], [ -34.955360799999937, -7.167964599999948 ], [ -34.955523299999982, -7.168001899999979 ], [ -34.955674699999975, -7.167866699999934 ], [ -34.955847499999948, -7.167893499999934 ], [ -34.956058199999973, -7.167936399999974 ], [ -34.956289799999979, -7.167912299999955 ], [ -34.956431499999951, -7.16794619999996 ], [ -34.956617599999959, -7.167848799999945 ], [ -34.956675899999937, -7.167748499999959 ], [ -34.956762, -7.167679199999952 ], [ -34.956872399999952, -7.167654599999935 ], [ -34.957093699999973, -7.16770189999994 ], [ -34.957324699999958, -7.167479 ], [ -34.957347399999946, -7.166799199999957 ], [ -34.957369, -7.166227 ], [ -34.957494, -7.165742 ], [ -34.957494, -7.165272 ], [ -34.957509, -7.164847 ], [ -34.957639, -7.163922 ], [ -34.956473799999969, -7.163418 ], [ -34.956456499999945, -7.163392699999974 ] ] ] ] } },
{ "type": "Feature", "properties": { "id": 6, "Nome": "Loteamento Heytel Santiago I e II", "num_lot": 37 }, "geometry": { "type": "MultiPolygon", "coordinates": [ [ [ [ -34.958377199999973, -7.158760799999925 ], [ -34.958144399999981, -7.160511699999972 ], [ -34.957819, -7.163017 ], [ -34.957639, -7.163922 ], [ -34.957509, -7.164847 ], [ -34.957509, -7.164847 ], [ -34.957494, -7.165742 ], [ -34.957369, -7.166227 ], [ -34.957349, -7.166752 ], [ -34.957324699999958, -7.167479 ], [ -34.957597, -7.167465199999981 ], [ -34.957672899999977, -7.167437199999938 ], [ -34.957897, -7.16727149999997 ], [ -34.958010499999943, -7.167211599999973 ], [ -34.958162199999947, -7.167159199999958 ], [ -34.958535099999949, -7.167123099999969 ], [ -34.958694099999946, -7.167129299999942 ], [ -34.958960199999979, -7.167162699999949 ], [ -34.959061799999972, -7.167135099999939 ], [ -34.959298499999932, -7.167119799999966 ], [ -34.959450799999956, -7.16718469999995 ], [ -34.959537399999931, -7.167243 ], [ -34.959672299999966, -7.16728379999995 ], [ -34.959952, -7.167272299999979 ], [ -34.960150596111788, -7.16731184935226 ], [ -34.960280499999953, -7.16735019999993 ], [ -34.960373899999979, -7.167387799999972 ], [ -34.96051209999996, -7.167390599999976 ], [ -34.960608599999944, -7.16734189999994 ], [ -34.960639299999968, -7.167245199999968 ], [ -34.96079409999993, -7.167099599999972 ], [ -34.96133889999993, -7.166862699999967 ], [ -34.961604899999941, -7.166868499999964 ], [ -34.96219629999996, -7.167031599999973 ], [ -34.962452799999937, -7.167240899999967 ], [ -34.962726599999939, -7.167446699999971 ], [ -34.962834, -7.167539399999953 ], [ -34.963283, -7.167506499999945 ], [ -34.963483499999938, -7.167547 ], [ -34.963580499999978, -7.167605199999969 ], [ -34.963657699999942, -7.167894699999977 ], [ -34.96367749999996, -7.168028499999934 ], [ -34.964401299999963, -7.165531899999962 ], [ -34.964653399999975, -7.164778699999943 ], [ -34.964879799999949, -7.16417649999994 ], [ -34.965106399999968, -7.163575399999957 ], [ -34.965345499999955, -7.163086 ], [ -34.965444199999979, -7.163009799999941 ], [ -34.965722399999947, -7.162396799999954 ], [ -34.958377199999973, -7.158760799999925 ] ] ] ] } },
{ "type": "Feature", "properties": { "id": 8, "Nome": "Loteamento Vale de Santa Rita I e II", "num_lot": 36 }, "geometry": { "type": "MultiPolygon", "coordinates": [ [ [ [ -34.965722399999947, -7.162396799999954 ], [ -34.965444199999979, -7.163009799999941 ], [ -34.965345499999955, -7.163086 ], [ -34.965106399999968, -7.163575399999957 ], [ -34.964879799999949, -7.16417649999994 ], [ -34.964653399999975, -7.164778699999943 ], [ -34.964401299999963, -7.165531899999962 ], [ -34.96367749999996, -7.168028499999934 ], [ -34.963787, -7.16823919999996 ], [ -34.963977599999964, -7.168397099999936 ], [ -34.964268499999946, -7.168551099999945 ], [ -34.96477479999993, -7.169031899999936 ], [ -34.965045199999963, -7.169258399999933 ], [ -34.965349899999978, -7.169415799999967 ], [ -34.966006399999969, -7.169457899999941 ], [ -34.966200299999969, -7.169564 ], [ -34.966221899999937, -7.169770899999946 ], [ -34.966374899999948, -7.169998 ], [ -34.966496199999938, -7.170107799999926 ], [ -34.966835799999956, -7.17033749999996 ], [ -34.966905, -7.170378699999958 ], [ -34.967009799999971, -7.170650799999976 ], [ -34.967110299999945, -7.17073309999995 ], [ -34.967214499999955, -7.170860299999958 ], [ -34.967496499999982, -7.171376599999974 ], [ -34.967859699999963, -7.171641499999964 ], [ -34.968279799999948, -7.171987399999978 ], [ -34.96862619999996, -7.172042899999951 ], [ -34.968895399999951, -7.172153799999933 ], [ -34.968805142441504, -7.172299471592103 ], [ -34.968916699999966, -7.172274399999935 ], [ -34.969046099999957, -7.172390099999973 ], [ -34.969100599999933, -7.172470299999929 ], [ -34.969334899999978, -7.172587199999953 ], [ -34.972669199999984, -7.168699899999979 ], [ -34.972669199999984, -7.168699899999979 ], [ -34.978060399999947, -7.171336499999938 ], [ -34.97758835277434, -7.170959852265163 ], [ -34.977990599999941, -7.170568499999945 ], [ -34.979309399999977, -7.169330299999956 ], [ -34.979589099999941, -7.169103699999937 ], [ -34.980109299999981, -7.168322 ], [ -34.979994099999942, -7.168197 ], [ -34.980655099999979, -7.167615699999942 ], [ -34.979696171884797, -7.166562570745667 ], [ -34.980414699999983, -7.165928399999927 ], [ -34.979512399999976, -7.164936599999976 ], [ -34.977773499999955, -7.162969 ], [ -34.976847199999952, -7.163963199999955 ], [ -34.975521599999979, -7.16246579999995 ], [ -34.974000699999976, -7.163441699999964 ], [ -34.972941099999957, -7.162017 ], [ -34.96984509999993, -7.164362599999947 ], [ -34.96984509999993, -7.164362599999947 ], [ -34.965722399999947, -7.162396799999954 ], [ -34.965722399999947, -7.162396799999954 ], [ -34.965722399999947, -7.162396799999954 ] ] ] ] } },
{ "type": "Feature", "properties": { "id": 9, "Nome": "Loteamento Colibris", "num_lot": 34 }, "geometry": { "type": "MultiPolygon", "coordinates": [ [ [ [ -34.980414699999983, -7.165928399999927 ], [ -34.979696171884797, -7.166562570745667 ], [ -34.980655099999979, -7.167615699999942 ], [ -34.981344199999967, -7.166951899999958 ], [ -34.980414699999983, -7.165928399999927 ] ] ] ] } },
{ "type": "Feature", "properties": { "id": 10, "Nome": "Loteamento Planalto Tibiri I", "num_lot": 26 }, "geometry": { "type": "MultiPolygon", "coordinates": [ [ [ [ -34.972122599999977, -7.156381299999964 ], [ -34.971832599999971, -7.155057499999941 ], [ -34.965613399999938, -7.155084199999976 ], [ -34.965297699999951, -7.155080599999962 ], [ -34.965080099999966, -7.155078899999978 ], [ -34.962360399999966, -7.155095399999936 ], [ -34.960361, -7.155114399999945 ], [ -34.95963329999995, -7.155123099999969 ], [ -34.95857419999993, -7.155131399999959 ], [ -34.958533399999965, -7.155250599999931 ], [ -34.958405699999958, -7.15666959999993 ], [ -34.958312799999931, -7.156893899999943 ], [ -34.958558099999948, -7.157001499999978 ], [ -34.960382599999946, -7.156980499999975 ], [ -34.960505799999964, -7.157866799999965 ], [ -34.960591199999953, -7.158074399999975 ], [ -34.960334, -7.158414499999935 ], [ -34.960114899999951, -7.158946499999956 ], [ -34.959996499999932, -7.159238799999969 ], [ -34.959878131163954, -7.159535245632329 ], [ -34.962034399999936, -7.160548299999959 ], [ -34.962236099999984, -7.160710499999936 ], [ -34.965503299999966, -7.162268399999959 ], [ -34.965722399999947, -7.162396799999954 ], [ -34.967065599999955, -7.16304219999995 ], [ -34.967201099999954, -7.163049299999955 ], [ -34.967065599999955, -7.16304219999995 ], [ -34.967139299999928, -7.162905099999932 ], [ -34.96715329999995, -7.161580499999957 ], [ -34.967147899999929, -7.158963899999947 ], [ -34.967180499999984, -7.156417499999975 ], [ -34.972122599999977, -7.156381299999964 ] ] ] ] } },
{ "type": "Feature", "properties": { "id": 11, "Nome": "Loteamento Sol Nascente", "num_lot": 27 }, "geometry": { "type": "MultiPolygon", "coordinates": [ [ [ [ -34.967180499999984, -7.156417499999975 ], [ -34.967139299999928, -7.162905099999932 ], [ -34.967065599999955, -7.16304219999995 ], [ -34.967201099999954, -7.163049299999955 ], [ -34.96984509999993, -7.164362599999947 ], [ -34.972941099999957, -7.162017 ], [ -34.973560099999929, -7.16159609999994 ], [ -34.973465499999975, -7.160964699999965 ], [ -34.975434599999971, -7.160346899999979 ], [ -34.975945799999977, -7.159890399999938 ], [ -34.978747599999963, -7.157279799999969 ], [ -34.97767609999994, -7.156056399999954 ], [ -34.976841599999943, -7.155096299999968 ], [ -34.975453799999968, -7.153723499999955 ], [ -34.974271499999929, -7.15407149999993 ], [ -34.971780699999954, -7.154818899999952 ], [ -34.971832599999971, -7.155057499999941 ], [ -34.972122599999977, -7.156381299999964 ], [ -34.967180499999984, -7.156417499999975 ] ] ] ] } },
{ "type": "Feature", "properties": { "id": 12, "Nome": "Loteamento Cehap II", "num_lot": 22 }, "geometry": { "type": "MultiPolygon", "coordinates": [ [ [ [ -34.971832599999971, -7.155057499999941 ], [ -34.970491899999956, -7.150372299999958 ], [ -34.968623499999978, -7.14393819999998 ], [ -34.968503299999952, -7.143433699999946 ], [ -34.968244899999945, -7.143677 ], [ -34.961216499999978, -7.150857899999949 ], [ -34.961001099999976, -7.150678 ], [ -34.959641899999951, -7.152116399999954 ], [ -34.959639799999934, -7.152403599999957 ], [ -34.959671799999967, -7.15512259999997 ], [ -34.967109899999969, -7.155054499999949 ], [ -34.971832599999971, -7.155057499999941 ] ] ] ] } },
{ "type": "Feature", "properties": { "id": 14, "Nome": "Loteamento Portal de Santa Rita", "num_lot": 39 }, "geometry": { "type": "MultiPolygon", "coordinates": [ [ [ [ -34.957135799999946, -7.158163299999956 ], [ -34.953124, -7.156277 ], [ -34.952999, -7.156838 ], [ -34.952859, -7.157352 ], [ -34.952664, -7.158242 ], [ -34.952524, -7.158732 ], [ -34.952477099999953, -7.159249899999963 ], [ -34.952374, -7.159667 ], [ -34.953941109305248, -7.160397282627336 ], [ -34.953757573888957, -7.160819224873026 ], [ -34.954250599999966, -7.161031399999956 ], [ -34.953621341415008, -7.162446446089586 ], [ -34.953808661066681, -7.1625618652689 ], [ -34.953609988708848, -7.162980023279203 ], [ -34.953693241887372, -7.163010297162301 ], [ -34.953511598588776, -7.163388720701036 ], [ -34.953708378828907, -7.16352495317498 ], [ -34.953367797644049, -7.164319642606323 ], [ -34.954899, -7.165007 ], [ -34.955104, -7.163642 ], [ -34.955168599999979, -7.163238399999955 ], [ -34.956456499999945, -7.163392699999974 ], [ -34.956677499999955, -7.161596399999951 ], [ -34.956823799999938, -7.160654199999954 ], [ -34.957135799999946, -7.158163299999956 ] ] ] ] } },
{ "type": "Feature", "properties": { "id": 13, "Nome": "Loteamento Portal de Santa Rita", "num_lot": 40 }, "geometry": { "type": "MultiPolygon", "coordinates": [ [ [ [ -34.952374, -7.159667 ], [ -34.951611912424312, -7.163485218703413 ], [ -34.953367797644049, -7.164319642606323 ], [ -34.953708378828907, -7.16352495317498 ], [ -34.953511598588776, -7.163388720701036 ], [ -34.953693241887372, -7.163010297162301 ], [ -34.953609988708848, -7.162980023279203 ], [ -34.953808661066681, -7.1625618652689 ], [ -34.953621341415008, -7.162446446089586 ], [ -34.954250599999966, -7.161031399999956 ], [ -34.953757573888957, -7.160819224873026 ], [ -34.953941109305248, -7.160397282627336 ], [ -34.952374, -7.159667 ] ] ] ] } },
{ "type": "Feature", "properties": { "id": 15, "Nome": "Loteamento Castro Pinto", "num_lot": 41 }, "geometry": { "type": "MultiPolygon", "coordinates": [ [ [ [ -34.953557599999954, -7.153439599999956 ], [ -34.948500399999944, -7.158582799999976 ], [ -34.949864299999945, -7.160042699999963 ], [ -34.949824699999965, -7.160340799999972 ], [ -34.949638, -7.161407 ], [ -34.949499, -7.162062 ], [ -34.949336699999947, -7.163114599999972 ], [ -34.94895379999997, -7.164735899999926 ], [ -34.949400799999978, -7.165233299999954 ], [ -34.949693399999944, -7.165794399999982 ], [ -34.949825899999951, -7.166083699999945 ], [ -34.949937499999976, -7.166345399999955 ], [ -34.950439199999948, -7.166529599999933 ], [ -34.950872599999968, -7.166917599999977 ], [ -34.950976899999944, -7.167062099999953 ], [ -34.951048399999934, -7.16691789999993 ], [ -34.951611912424312, -7.163485218703413 ], [ -34.952999, -7.156838 ], [ -34.953124, -7.156277 ], [ -34.953365199999951, -7.155709299999955 ], [ -34.953263099999958, -7.155034699999931 ], [ -34.953557599999954, -7.153439599999956 ] ] ] ] } },
{ "type": "Feature", "properties": { "id": 16, "Nome": "Loteamento Privê Aeroporto", "num_lot": 42 }, "geometry": { "type": "MultiPolygon", "coordinates": [ [ [ [ -34.954533899999944, -7.148437 ], [ -34.95409449999994, -7.148445899999956 ], [ -34.954533899999944, -7.148437 ], [ -34.95409449999994, -7.148445899999956 ], [ -34.941492599999947, -7.161089299999958 ], [ -34.937334938366646, -7.165364564602647 ], [ -34.936604580936887, -7.166125195915503 ], [ -34.936604580936887, -7.166125195915503 ], [ -34.936604580936887, -7.166125195915503 ], [ -34.936149599999965, -7.166592299999934 ], [ -34.936149599999965, -7.166592299999934 ], [ -34.936149599999965, -7.166592299999934 ], [ -34.936552, -7.166322599999944 ], [ -34.936552, -7.166322599999944 ], [ -34.936552, -7.166322599999944 ], [ -34.936552, -7.166322599999944 ], [ -34.936552, -7.166322599999944 ], [ -34.936552, -7.166322599999944 ], [ -34.937047199999938, -7.165809899999942 ], [ -34.938045599999953, -7.165005299999962 ], [ -34.939004599999976, -7.164697699999977 ], [ -34.939190699999983, -7.164607199999978 ], [ -34.939473899999939, -7.164585299999942 ], [ -34.939729799999952, -7.164653199999975 ], [ -34.94031039999993, -7.16472669999996 ], [ -34.941061, -7.164137 ], [ -34.941943599999945, -7.163739899999939 ], [ -34.94286939999995, -7.163749799999948 ], [ -34.941943599999945, -7.163739899999939 ], [ -34.942164599999955, -7.163725199999931 ], [ -34.942337299999963, -7.163731399999961 ], [ -34.942700099999968, -7.163750499999935 ], [ -34.94286939999995, -7.163749799999948 ], [ -34.943981599999972, -7.163731299999938 ], [ -34.944724299999962, -7.163745399999925 ], [ -34.943760499999939, -7.163732299999936 ], [ -34.943981599999972, -7.163731299999938 ], [ -34.944151, -7.163765099999978 ], [ -34.944375499999978, -7.163771099999963 ], [ -34.944724299999962, -7.163745399999925 ], [ -34.945052199999964, -7.163675099999978 ], [ -34.946247099999937, -7.163607899999931 ], [ -34.94685579999998, -7.163788199999942 ], [ -34.947672099999977, -7.16404689999996 ], [ -34.94685579999998, -7.163788199999942 ], [ -34.94705289999996, -7.16384249999993 ], [ -34.947248099999968, -7.163914 ], [ -34.947537299999965, -7.164019899999971 ], [ -34.947672099999977, -7.16404689999996 ], [ -34.947959399999945, -7.164190599999927 ], [ -34.94811889999994, -7.16433829999994 ], [ -34.948866399999929, -7.164656 ], [ -34.94895379999997, -7.164735899999926 ], [ -34.94811889999994, -7.16433829999994 ], [ -34.94895379999997, -7.164735899999926 ], [ -34.948866399999929, -7.164656 ], [ -34.949336699999947, -7.163114599999972 ], [ -34.949344899999971, -7.163079599999946 ], [ -34.949349, -7.163062 ], [ -34.949499, -7.162062 ], [ -34.949529799999937, -7.161916799999972 ], [ -34.949638, -7.161407 ], [ -34.949824699999965, -7.160340799999972 ], [ -34.949864299999945, -7.160042699999963 ], [ -34.948500399999944, -7.158582799999976 ], [ -34.953557599999954, -7.153439599999956 ], [ -34.953604, -7.153307 ], [ -34.953704899999934, -7.152821699999947 ], [ -34.953951299999972, -7.151556299999982 ], [ -34.953954199999941, -7.151541599999973 ], [ -34.954533899999944, -7.148437 ] ] ] ] } },
{ "type": "Feature", "properties": { "id": 17, "Nome": "Loteamento Paraíso Tropical", "num_lot": 21 }, "geometry": { "type": "MultiPolygon", "coordinates": [ [ [ [ -34.970192299999951, -7.149287699999945 ], [ -34.971780699999954, -7.154818899999952 ], [ -34.974271499999929, -7.15407149999993 ], [ -34.975453799999968, -7.153723499999955 ], [ -34.975389799999959, -7.153628899999944 ], [ -34.975372299999947, -7.153553699999975 ], [ -34.975440799999944, -7.153255499999943 ], [ -34.975510399999962, -7.153091099999926 ], [ -34.975742299999979, -7.152365799999927 ], [ -34.975727699999936, -7.152208199999961 ], [ -34.975918199999967, -7.151638599999956 ], [ -34.976117199999976, -7.150901799999929 ], [ -34.976252799999941, -7.150598099999968 ], [ -34.976343799999938, -7.150276199999951 ], [ -34.976409199999978, -7.150056199999938 ], [ -34.976513199999943, -7.149734799999976 ], [ -34.97657449999997, -7.14955139999995 ], [ -34.976709099999937, -7.149099 ], [ -34.976735299999973, -7.148992299999975 ], [ -34.976891199999955, -7.148464 ], [ -34.977051, -7.147939699999938 ], [ -34.976924099999962, -7.147922699999981 ], [ -34.97638459999996, -7.148069899999939 ], [ -34.975069399999938, -7.148439199999927 ], [ -34.972823299999959, -7.149099099999944 ], [ -34.972667499999943, -7.14855179999995 ], [ -34.970192299999951, -7.149287699999945 ] ] ] ] } },
{ "type": "Feature", "properties": { "id": 18, "Nome": "Loteamento Portal do Tibiri I", "num_lot": 20 }, "geometry": { "type": "MultiPolygon", "coordinates": [ [ [ [ -34.969593, -7.147202299999947 ], [ -34.970192299999951, -7.149287699999945 ], [ -34.972667499999943, -7.14855179999995 ], [ -34.972823299999959, -7.149099099999944 ], [ -34.975069399999938, -7.148439199999927 ], [ -34.97638459999996, -7.148069899999939 ], [ -34.976924099999962, -7.147922699999981 ], [ -34.976924099999962, -7.147922699999981 ], [ -34.977051, -7.147939699999938 ], [ -34.977247499999976, -7.147409799999934 ], [ -34.977521599999932, -7.146953199999928 ], [ -34.977451099999939, -7.146894399999951 ], [ -34.977307799999949, -7.146751399999971 ], [ -34.977138799999977, -7.146534699999961 ], [ -34.97691709999998, -7.146424799999977 ], [ -34.976806499999952, -7.146409199999937 ], [ -34.976747699999976, -7.146399699999961 ], [ -34.976691799999969, -7.146368699999925 ], [ -34.976494899999977, -7.14613449999996 ], [ -34.976318799999945, -7.145843299999967 ], [ -34.976002799999947, -7.14526619999998 ], [ -34.975890299999946, -7.145061599999963 ], [ -34.975647799999933, -7.144928599999957 ], [ -34.975289299999929, -7.144731699999966 ], [ -34.975245899999948, -7.144721699999934 ], [ -34.974838, -7.144495399999926 ], [ -34.974760199999935, -7.144426799999962 ], [ -34.974483699999951, -7.144267299999967 ], [ -34.974411299999929, -7.144204699999932 ], [ -34.974063499999943, -7.144042 ], [ -34.973664199999973, -7.143811199999959 ], [ -34.97329689999998, -7.143602399999963 ], [ -34.972920699999975, -7.143385599999931 ], [ -34.972845199999938, -7.143361099999936 ], [ -34.972834499999976, -7.143449299999929 ], [ -34.972558499999934, -7.14394429999993 ], [ -34.972226299999932, -7.14449129999997 ], [ -34.972109299999943, -7.144672 ], [ -34.972035799999958, -7.144776799999931 ], [ -34.971989, -7.144847 ], [ -34.971759, -7.145192 ], [ -34.971759199999951, -7.145393899999931 ], [ -34.971943, -7.145955699999945 ], [ -34.972101399999929, -7.146473799999967 ], [ -34.969593, -7.147202299999947 ] ] ] ] } },
{ "type": "Feature", "properties": { "id": 19, "Nome": "Loteamento Nova Trindade", "num_lot": 35 }, "geometry": { "type": "MultiPolygon", "coordinates": [ [ [ [ -34.975434599999971, -7.160346899999979 ], [ -34.973480399999971, -7.161081599999932 ], [ -34.973560099999929, -7.16159609999994 ], [ -34.972941099999957, -7.162017 ], [ -34.974000699999976, -7.163441699999964 ], [ -34.975521599999979, -7.16246579999995 ], [ -34.976847199999952, -7.163963199999955 ], [ -34.977773499999955, -7.162969 ], [ -34.97755369999993, -7.162714599999958 ], [ -34.97726769999997, -7.162397599999963 ], [ -34.976966599999969, -7.162054099999978 ], [ -34.976667799999973, -7.161709899999948 ], [ -34.976358799999957, -7.161382799999956 ], [ -34.976071399999967, -7.161035499999969 ], [ -34.975910799999951, -7.160869 ], [ -34.975764699999957, -7.160689699999978 ], [ -34.975434599999971, -7.160346899999979 ] ] ] ] } },
{ "type": "Feature", "properties": { "id": 20, "Nome": "Loteamento Dep. Flaviano Ribeiro Coutinho Filho", "num_lot": 31 }, "geometry": { "type": "MultiPolygon", "coordinates": [ [ [ [ -34.979102199999943, -7.16448239999994 ], [ -34.97999249999998, -7.165467399999955 ], [ -34.980919699999959, -7.164614499999971 ], [ -34.981269499999939, -7.164291399999968 ], [ -34.981608899999969, -7.163980899999956 ], [ -34.982449299999985, -7.16318549999994 ], [ -34.982958199999985, -7.162705799999969 ], [ -34.983330399999943, -7.16234819999994 ], [ -34.983196499999963, -7.162197399999968 ], [ -34.982598199999984, -7.161530699999958 ], [ -34.982418399999972, -7.161335899999926 ], [ -34.982035899999971, -7.161705599999948 ], [ -34.981716, -7.162007499999959 ], [ -34.981373099999985, -7.162327799999957 ], [ -34.980727199999933, -7.162947199999962 ], [ -34.980390099999966, -7.163277199999925 ], [ -34.980035599999951, -7.163602 ], [ -34.979102199999943, -7.16448239999994 ] ] ] ] } },
{ "type": "Feature", "properties": { "id": 21, "Nome": "Loteamento Marcos Moura", "num_lot": 30 }, "geometry": { "type": "MultiPolygon", "coordinates": [ [ [ [ -34.978840199999979, -7.160867099999962 ], [ -34.97819469999996, -7.16149779999995 ], [ -34.97726769999997, -7.162397599999963 ], [ -34.97755369999993, -7.162714599999958 ], [ -34.977773499999955, -7.162969 ], [ -34.978632254774638, -7.16394069813941 ], [ -34.978660099999956, -7.163973799999951 ], [ -34.978754099999946, -7.164086899999973 ], [ -34.979102199999943, -7.16448239999994 ], [ -34.980035599999951, -7.163602 ], [ -34.980390099999966, -7.163277199999925 ], [ -34.980727199999933, -7.162947199999962 ], [ -34.978840199999979, -7.160867099999962 ] ] ] ] } },
{ "type": "Feature", "properties": { "id": 22, "Nome": "Loteamento Jardim Carolina", "num_lot": 29 }, "geometry": { "type": "MultiPolygon", "coordinates": [ [ [ [ -34.980560399999945, -7.159261599999979 ], [ -34.980199199999959, -7.159590799999933 ], [ -34.979249299999935, -7.160504699999933 ], [ -34.978840199999979, -7.160867099999962 ], [ -34.980727199999933, -7.162947199999962 ], [ -34.981373099999985, -7.162327799999957 ], [ -34.981716, -7.162007499999959 ], [ -34.982035899999971, -7.161705599999948 ], [ -34.982418399999972, -7.161335899999926 ], [ -34.980560399999945, -7.159261599999979 ] ] ] ] } },
{ "type": "Feature", "properties": { "id": 23, "Nome": "Loteamento Solar de Tibiri", "num_lot": 28 }, "geometry": { "type": "MultiPolygon", "coordinates": [ [ [ [ -34.976841599999943, -7.155096299999968 ], [ -34.978747599999963, -7.157279799999969 ], [ -34.975945799999977, -7.159890399999938 ], [ -34.975434599999971, -7.160346899999979 ], [ -34.975426899999945, -7.160338499999966 ], [ -34.975434599999971, -7.160346899999979 ], [ -34.975764699999957, -7.160689699999978 ], [ -34.975910799999951, -7.160869 ], [ -34.976071399999967, -7.161035499999969 ], [ -34.976358799999957, -7.161382799999956 ], [ -34.976667799999973, -7.161709899999948 ], [ -34.976966599999969, -7.162054099999978 ], [ -34.97726769999997, -7.162397599999963 ], [ -34.97819469999996, -7.16149779999995 ], [ -34.978840199999979, -7.160867099999962 ], [ -34.979249299999935, -7.160504699999933 ], [ -34.980199199999959, -7.159590799999933 ], [ -34.980560399999945, -7.159261599999979 ], [ -34.980873699999961, -7.159590399999956 ], [ -34.981161399999962, -7.159914399999934 ], [ -34.981511399999931, -7.159610199999975 ], [ -34.98185129999996, -7.159317 ], [ -34.982214499999941, -7.159023399999967 ], [ -34.982401, -7.159226 ], [ -34.982708199999934, -7.15958569999998 ], [ -34.983301099999949, -7.160225099999934 ], [ -34.983615499999985, -7.160541099999932 ], [ -34.983929299999943, -7.160235599999965 ], [ -34.984722699999963, -7.159377699999936 ], [ -34.984547899999939, -7.159214799999972 ], [ -34.983813, -7.158534399999951 ], [ -34.983474699999931, -7.158196 ], [ -34.982559799999933, -7.157280599999979 ], [ -34.98230609999996, -7.157050599999934 ], [ -34.981971699999974, -7.156736299999977 ], [ -34.981135299999949, -7.155873199999974 ], [ -34.980038399999955, -7.154715899999928 ], [ -34.978600299999982, -7.153231199999937 ], [ -34.978488599999935, -7.153346699999929 ], [ -34.978463899999952, -7.153341699999942 ], [ -34.978349599999945, -7.153457699999933 ], [ -34.977772099999981, -7.154121399999951 ], [ -34.977784699999972, -7.154135499999938 ], [ -34.977772099999981, -7.154121399999951 ], [ -34.977730299999962, -7.154168599999934 ], [ -34.977129, -7.154799199999957 ], [ -34.976852235739173, -7.155108536516729 ], [ -34.976841599999943, -7.155096299999968 ] ] ] ] } }
]
}
