{
"type": "FeatureCollection",
"name": "quadras",
"crs": { "type": "name", "properties": { "name": "urn:ogc:def:crs:EPSG::4674" } },
"features": [
{ "type": "Feature", "properties": { "id": 4, "quadra": "096" }, "geometry": { "type": "MultiPolygon", "coordinates": [ [ [ [ -34.964387295218899, -7.14370542879194 ], [ -34.964454625261297, -7.14414873210889 ], [ -34.963286395653299, -7.14440705347942 ], [ -34.9626744238005, -7.14452709555144 ], [ -34.962666457787698, -7.14405283755687 ], [ -34.964387295218899, -7.14370542879194 ] ] ] ] } },
{ "type": "Feature", "properties": { "id": 1, "quadra": "05" }, "geometry": { "type": "MultiPolygon", "coordinates": [ [ [ [ -34.964558082346997, -7.14309817366315 ], [ -34.9626543014015, -7.143516 ], [ -34.962664067981102, -7.14399241082798 ], [ -34.964656460178901, -7.14355312094481 ], [ -34.964558082346997, -7.14309817366315 ] ] ] ] } },
{ "type": "Feature", "properties": { "id": 2, "quadra": "095" }, "geometry": { "type": "MultiPolygon", "coordinates": [ [ [ [ -34.964652113769603, -7.1430754085683 ], [ -34.9647751854367, -7.14350964165065 ], [ -34.966266502033903, -7.14319447779637 ], [ -34.966530230194302, -7.1431335396441 ], [ -34.966433057744297, -7.14266757450042 ], [ -34.964652113769603, -7.1430754085683 ] ] ] ] } },
{ "type": "Feature", "properties": { "id": 3, "quadra": "094" }, "geometry": { "type": "MultiPolygon", "coordinates": [ [ [ [ -34.966575284143801, -7.143128850355 ], [ -34.968253502203403, -7.14275386818653 ], [ -34.968116090908602, -7.14230062274985 ], [ -34.966493831393102, -7.14265802624479 ], [ -34.966575284143801, -7.143128850355 ] ] ] ] } }
]
}
